[{"OBJECT_NAME":"STARLINK-2495","OBJECT_ID":"2021-036BB","EPOCH":"2026-03-10T00:00:02.999808","MEAN_MOTION":15.25666379,"ECCENTRICITY":0.00013586,"INCLINATION":53.1396,"RA_OF_ASC_NODE":99.5343,"ARG_OF_PERICENTER":96.575,"MEAN_ANOMALY":112.8894,"EPHEMERIS_TYPE":0,"CLASSIFICATION_TYPE":"U","NORAD_CAT_ID":48325,"ELEMENT_SET_NO":999,"REV_AT_EPOCH":579,"BSTAR":0.06493745,"MEAN_MOTION_DOT":0.01841397,"MEAN_MOTION_DDOT":0},{"OBJECT_NAME":"OBJECT AD","OBJECT_ID":"2023-085AD","EPOCH":"2026-03-09T21:41:29.115744","MEAN_MOTION":15.31779154,"ECCENTRICITY":0.00101154,"INCLINATION":97.4841,"RA_OF_ASC_NODE":180.2223,"ARG_OF_PERICENTER":77.5993,"MEAN_ANOMALY":282.638,"EPHEMERIS_TYPE":0,"CLASSIFICATION_TYPE":"U","NORAD_CAT_ID":57031,"ELEMENT_SET_NO":999,"REV_AT_EPOCH":15156,"BSTAR":0.00068352515,"MEAN_MOTION_DOT":0.00020961,"MEAN_MOTION_DDOT":0}]
